ONEWEB-0371             
1 49297U 21090U   25099.82107623  .00000072  00000+0  14647-3 0  9990
2 49297  87.9252  31.0982 0001850  75.9833 284.1505 13.19725069169293
ONEWEB-0372             
1 49298U 21090V   25099.75673998  .00000091  00000+0  19100-3 0  9996
2 49298  87.9332   0.7333 0001881  74.8338 285.3004 13.20770896172626
ONEWEB-0373             
1 49299U 21090W   25099.70795121  .00000001  00000+0 -29026-4 0  9996
2 49299  87.9332   0.7549 0002064  82.9506 277.1862 13.20771696173808
ONEWEB-0374             
1 49300U 21090X   25099.78017718 -.00000088  00000+0 -27053-3 0  9999
2 49300  87.9100  15.8933 0002351  81.2901 278.8494 13.14504633170622
ONEWEB-0375             
1 49301U 21090Y   25099.77107790  .00000032  00000+0  47401-4 0  9996
2 49301  87.9332   0.7199 0002284  93.5848 266.5547 13.20773168173318
ONEWEB-0376             
1 49302U 21090Z   25099.81949842  .00000048  00000+0  87700-4 0  9997
2 49302  87.9245  31.0875 0001938  71.3456 288.7887 13.19724534169290
ONEWEB-0377             
1 49303U 21090AA  25099.75701101  .00000061  00000+0  11712-3 0  9999
2 49303  87.9331   0.7155 0001670  87.6444 272.4880 13.20769737173307
ONEWEB-0378             
1 49304U 21090AB  25099.77910548 -.00000027  00000+0 -98308-4 0  9990
2 49304  87.9332   0.7177 0001959  82.1373 277.9983 13.20771592172578
